STARLINK-32651          
1 62314U 24239P   26068.61526155  .00028253  00000+0  96322-3 0  9993
2 62314  53.1593 194.1825 0001348 105.2248 254.8902 15.30172456 69371
GLOBAL-34               
1 68098U 26043A   26068.47466435  .00014018  00000+0  45822-3 0  9994
2 68098  42.0215  76.7399 0006884 289.2632  70.7460 15.31488019   538
